NORAD_CAT_ID,OBJECT_NAME,OBJECT_TYPE,EPOCH,MEAN_MOTION,ECCENTRICITY,INCLINATION,RA_OF_ASC_NODE,ARG_OF_PERICENTER,MEAN_ANOMALY,BSTAR,MEAN_MOTION_DOT,MEAN_MOTION_DDOT,TLE_LINE0,TLE_LINE1,TLE_LINE2,SEMIMAJOR_AXIS,PERIOD,APOGEE,PERIGEE,DECAYED
53835.0,STARLINK-4783,PAYLOAD,2024-08-14 13:39:44,15.088322,0.0001514,53.218,352.2569,102.1367,257.9795,0.00027689,4.121e-05,0.0,0 STARLINK-4783,1 53835U 22114T   24227.56926932  .00004121  00000-0  27689-3 0  9996,2 53835  53.2180 352.2569 0001514 102.1367 257.9795 15.08832200105928,6917.904,95.438,540.817,538.722,0.0
53835.0,STARLINK-4783,PAYLOAD,2024-08-14 15:15:08,15.0883451,0.0001355,53.2179,351.9596,92.9406,267.1742,0.00036728,5.561e-05,0.0,0 STARLINK-4783,1 53835U 22114T   24227.63550960  .00005561  00000-0  36728-3 0  9991,2 53835  53.2179 351.9596 0001355  92.9406 267.1742 15.08834510106477,6917.897,95.438,540.7,538.825,0.0
53835.0,STARLINK-4783,PAYLOAD,2024-08-15 15:05:54,15.08856192,0.0001006,53.2171,347.4992,100.7473,259.3632,0.00079365,0.00012371,0.0,0 STARLINK-4783,1 53835U 22114T   24228.62910660  .00012371  00000-0  79365-3 0  9999,2 53835  53.2171 347.4992 0001006 100.7473 259.3632 15.08856192106622,6917.831,95.437,540.392,539.0,0.0
53835.0,STARLINK-4783,PAYLOAD,2024-08-16 00:38:12,15.08863526,0.0001061,53.2163,345.7134,84.2949,275.8164,0.00054146,8.345e-05,0.0,0 STARLINK-4783,1 53835U 22114T   24229.02653910  .00008345  00000-0  54146-3 0  9992,2 53835  53.2163 345.7134 0001061  84.2949 275.8164 15.08863526106685,6917.808,95.436,540.407,538.94,0.0
53835.0,STARLINK-4783,PAYLOAD,2024-08-17 16:22:52,15.08835428,0.000106,53.2174,338.2816,75.0698,285.0412,2.8526e-05,1.66e-06,0.0,0 STARLINK-4783,1 53835U 22114T   24230.68255162  .00000166  00000-0  28526-4 0  9990,2 53835  53.2174 338.2816 0001060  75.0698 285.0412 15.08835428106396,6917.894,95.438,540.493,539.026,0.0
53835.0,STARLINK-4783,PAYLOAD,2024-08-18 13:02:52,15.08867459,0.0001505,53.2179,334.4153,111.5324,248.5829,0.00087487,0.00013673,0.0,0 STARLINK-4783,1 53835U 22114T   24231.54366156  .00013673  00000-0  87487-3 0  9999,2 53835  53.2179 334.4153 0001505 111.5324 248.5829 15.08867459106529,6917.796,95.436,540.703,538.62,0.0
53835.0,STARLINK-4783,PAYLOAD,2024-08-18 14:38:15,15.08872759,0.0001393,53.2179,334.1173,95.1509,264.9642,0.0010139,0.00015899,0.0,0 STARLINK-4783,1 53835U 22114T   24231.60990047  .00015899  00000-0  10139-2 0  9999,2 53835  53.2179 334.1173 0001393  95.1509 264.9642 15.08872759107070,6917.78,95.435,540.609,538.682,0.0
53835.0,STARLINK-4783,PAYLOAD,2024-08-19 12:53:38,15.08859837,0.0001162,53.2185,329.9561,77.2119,282.9003,0.00021704,3.17e-05,0.0,0 STARLINK-4783,1 53835U 22114T   24232.53725366  .00003170  00000-0  21704-3 0  9992,2 53835  53.2185 329.9561 0001162  77.2119 282.9003 15.08859837106670,6917.82,95.436,540.489,538.881,0.0
53835.0,STARLINK-4783,PAYLOAD,2024-08-20 12:44:26,15.08837437,0.0001351,53.2174,325.4954,91.4408,268.6739,-0.00023448,-4.017e-05,0.0,0 STARLINK-4783,1 53835U 22114T   24233.53086037 -.00004017  00000-0 -23448-3 0  9998,2 53835  53.2174 325.4954 0001351  91.4408 268.6739 15.08837437106820,6917.888,95.438,540.688,538.819,0.0
53835.0,STARLINK-4783,PAYLOAD,2024-08-21 12:35:13,15.08842389,0.0001538,53.2185,321.0356,103.3221,256.7942,-1.225e-05,-4.83e-06,0.0,0 STARLINK-4783,1 53835U 22114T   24234.52446427 -.00000483  00000-0 -12250-4 0  9994,2 53835  53.2185 321.0356 0001538 103.3221 256.7942 15.08842389107516,6917.873,95.437,540.802,538.674,0.0
